#dP2024  6  4  0  0  0.00000000      96 __u+U IGS20 FIT  IAC
## 2317 172800.00000000   900.00000000 60465 0.0000000000000
+   54   G02G03G04G05G06G07G08G09G10G11G12G13G14G15G16G17G18
+        G19G20G21G22G23G24G25G26G27G28G29G30G31G32R01R02R03
+        R04R05R07R08R09R11R12R13R14R15R16R17R18R19R20R21R22
+        R24R25R26  0  0  0  0  0  0  0  0  0  0  0  0  0  0
+          0  0  0  0  0  0  0  0  0  0  0  0  0  0  0  0  0
++         7  7  6  6  6  6  7  6  7  6  6  8  7  8  6  6  6
++         6  7  6  6  6  8  6  6  6  6  7  7  6  7  8  5  7
++         7  7  7  7  6  6  6  7  6  7  7  6  7  7  7  6  8
++         5  6  8  0  0  0  0  0  0  0  0  0  0  0  0  0  0
++         0  0  0  0  0  0  0  0  0  0  0  0  0  0  0  0  0
%c M  cc GPS ccc cccc cccc cccc cccc ccccc ccccc ccccc ccccc
%c cc cc ccc ccc cccc cccc cccc cccc ccccc ccccc ccccc ccccc
%f  0.0000000  0.000000000  0.00000000000  0.000000000000000
%f  0.0000000  0.000000000  0.00000000000  0.000000000000000
%i    0    0    0    0      0      0      0      0         0
%i    0    0    0    0      0      0      0      0         0
/* INFORMATION & ANALYSIS CENTER (IAC)      ULTRA-RAPID DATA
/* S/V CLOCKS ARE ALIGNED TO GNSS TIME                      
/* G:C1WC2W R:C1PC2P E:C1XC5X C:C2IC6I J:C1CC2S             
/* PCV:IGS20_2290 OL/AL:FES2004  NONE     YN ORB:CoN CLK:CoN
*  2024 06 04  2 30  0.00000000
PG02 -17567.878613  -4860.014414  19896.879930   -424.190758
PG03 -19894.174574   8296.820239  15278.768714    396.634377
PG04 -25859.326539   -595.400299  -6322.408907    375.646630
PG05  13698.888259   6658.251095 -21944.982283   -175.079561
PG06   4285.924169  25205.543673   7038.330804    237.872296
PG07  -9328.656889  14615.801825 -19469.014311   -103.701207
PG08 -25609.202880  -6472.290113  -4578.459494    212.566614
PG09 -18952.942202   9053.165186 -16368.106417    221.348209
PG10   8019.659273 -22307.731729  11845.813218    -35.561091
PG11  12095.386396  22812.400734  -6326.616700   -677.750800
PG12  20184.173817  -5124.458007  16175.383995   -511.105138
PG13  20215.746884  13892.378664 -10687.619451    655.445353
PG14 -11457.467625  22432.261345   8111.328452    416.958255
PG15  25991.163970   3852.379659  -5029.229066    166.292065
PG16 -11027.453240 -10659.194299 -22013.844368   -273.895082
PG17  -5903.241567  14221.524709  22072.061544    699.309887
PG18   8726.698533 -15348.344853 -19765.014684   -620.219655
PG19   5004.357924  15983.232088  20529.515144    491.454488
PG20   7239.762390  16025.008015 -19889.303855    374.216620
PG21 -18407.426660 -10896.467290  16801.033366    117.634498
PG22  -5619.960193  21272.469191  15502.385410    -22.664896
PG23  16046.266223 -21028.085638    100.703281    241.797748
PG24  18217.986392   7229.428779  17684.369671   -475.177060
PG25  19833.224318 -14612.277380   9248.101952    496.824501
PG26  -1077.062667 -20500.389422 -16805.079899    142.652009
PG27 -18715.753360 -12943.347923 -14331.008642    -26.884461
PG28  -3374.788420 -24676.932898   9217.359074   -273.169341
PG29  21637.209485  -5143.189058 -14660.119520   -595.748212
PG30  -1552.513321  22886.949500 -13005.143448   -379.916033
PG31 -10073.293132 -24287.338988  -1863.577070   -227.573671
PG32   2231.495498 -15129.303702  21929.043519   -617.163946
PR01 -12545.034013  -7144.358033  21028.028386     87.372022
PR02 -24015.808638    906.971870   8686.926124    -23.162467
PR03 -22182.155337   9086.965116  -8749.338573    101.406320
PR04  -8420.070440  11694.596826 -21018.077944    239.494041
PR05   9871.085306   8324.991907 -21980.362000    132.542950
PR07  21668.689248  -9371.772524   9644.160119     83.806365
PR08   7959.115004 -11891.494954  21171.081675     -4.550639
PR09  11574.768773    501.481546  22752.387390    190.261550
PR11   7366.060421 -24432.705747    -76.161043     22.559976
PR12  -3226.650487 -18128.761218 -17619.394809     40.903595
PR13 -10496.013359  -3480.980967 -22995.722391    -48.020776
PR14 -12497.574631  16567.823438 -14800.082513     26.547572
PR15  -6731.522773  24536.067920   1778.279183     79.163248
PR16   3109.491073  18218.335829  17575.042527     26.160236
PR17 -10137.365071   4474.247521  22973.438323     92.712216
PR18   2785.816601  16392.158246  19333.793751    145.308777
PR19  12864.601818  20737.263816   7427.295195   -279.024954
PR20  17880.014195  12275.941008 -13392.663701   -113.917796
PR21  10324.455735  -4071.270373 -22975.511981   -106.329740
PR22  -3097.535320 -17322.500576 -18449.458468    106.485534
PR24 -18540.190060 -10882.316308  13726.620496    -58.464325
PR25  10392.472666  -4465.744797 -22863.425255    -25.998068
PR26   9287.655874 -11956.964315  20559.105468     -7.040743
*  2024 06 04  2 45  0.00000000
PG02 -18455.721154  -6759.780403  18477.777245   -424.184636
PG03 -18855.908593   6715.411789  17238.027121    396.651019
PG04 -26379.640510   -910.536364  -3540.580337    375.653950
PG05  12301.873051   8701.039343 -22050.694007   -175.080711
PG06   3775.409153  24384.357300   9739.433611    237.853694
PG07 -10374.121502  12448.837963 -20439.943723   -103.689650
PG08 -24931.690731  -6644.738156  -7286.897335    212.583565
PG09 -20669.450192   8698.177325 -14353.469332    221.361108
PG10   8883.653668 -23143.000181   9279.700878    -35.568052
PG11  12073.078599  23422.839946  -3537.680920   -677.758546
PG12  18989.549024  -3509.321257  17931.912216   -511.108205
PG13  18895.363595  13707.038856 -13095.876971    655.447497
PG14 -12174.224235  22853.261426   5417.309396    416.966442
PG15  25329.494126   4161.850632  -7697.140051    166.295817
PG16  -9365.725538 -12443.514056 -21804.242863   -273.885880
PG17  -8262.740261  13749.155178  21614.404660    699.305448
PG18   9672.043449 -13219.061125 -20851.230891   -620.224368
PG19   2635.905585  15479.042669  21299.683800    491.459150
PG20   6126.851607  17939.714996 -18603.528013    374.216499
PG21 -19113.497997 -12450.818148  14851.221565    117.632175
PG22  -6802.342685  22328.116579  13361.167845    -22.669419
PG23  16130.350500 -20774.165416  -2798.808312    241.805984
PG24  18997.635858   9075.144324  16009.429754   -475.179711
PG25  19312.885765 -13438.105643  11733.278663    496.824950
PG26    103.952153 -21896.137779 -14925.669906    142.646562
PG27 -17016.122071 -12890.719122 -16356.128098    -26.885840
PG28  -2671.260403 -23680.153787  11719.910881   -273.184722
PG29  23107.234628  -4671.077152 -12402.629889   -595.746926
PG30  -2434.928886  21470.249495 -15116.642040   -379.910671
PG31  -9798.750280 -24424.613509   1001.084325   -227.573811
PG32   4665.590579 -14823.190179  21735.229676   -617.163212
PR01  -9970.655107  -7827.483415  22135.586781     87.373220
PR02 -22771.436425    766.087322  11579.659306    -23.162404
PR03 -23012.978831   9460.309406  -5696.075869    101.407231
PR04 -10834.746038  12373.114467 -19469.674313    239.495910
PR05   7171.047655   8932.309235 -22775.301954    132.544223
PR07  22600.634913  -9762.932544   6629.476349     83.806682
PR08  10371.107094 -12581.497919  19668.087200     -4.551165
PR09  10899.740931   3225.219756  22855.461360    190.264054
PR11   7175.456040 -24290.655521   3127.006972     22.558909
PR12  -2774.483221 -20122.597546 -15394.514599     40.904015
PR13  -9792.223665  -6209.949381 -22729.492212    -48.020932
PR14 -11911.664348  14684.228635 -17093.761290     26.547868
PR15  -6612.332081  24588.492345  -1425.801384     79.163480
PR16   2684.321413  20205.408752  15324.338015     26.160621
PR17 -12105.453824   2486.763040  22308.861803     92.714941
PR18   1153.505768  14511.979519  20940.672845    145.310498
PR19  12285.041970  19775.644701  10423.390268   -279.026050
PR20  19002.389566  13266.425702 -10611.532870   -113.916527
PR21  12278.362225  -2074.699079 -22272.752523   -106.332643
PR22  -1565.776477 -15487.923262 -20189.137294    106.482184
PR24 -19691.228102 -11892.164578  11015.014338    -58.465389
PR25  12264.851798  -2406.724384 -22238.362811    -26.026432
PR26  11616.837932 -12652.568788  18891.333535     -7.040178
EOF
